CCSDS_OMM_VERS = 2.0
CREATION_DATE  = 
ORIGINATOR     = 

OBJECT_NAME    = HULIANWANG DIGUI 18J
OBJECT_ID      = 2026-007J
CENTER_NAME    = EARTH
REF_FRAME      = TEME
TIME_SYSTEM    = UTC
MEAN_ELEMENT_THEORY = SGP/SGP4

EPOCH          = 2026-01-17T03:10:45.529824
MEAN_MOTION    = 13.92552423
ECCENTRICITY   = .00061038
INCLINATION    = 50.0090
RA_OF_ASC_NODE = 280.5336
ARG_OF_PERICENTER = 288.6914
MEAN_ANOMALY   = 71.3323

EPHEMERIS_TYPE = 0
CLASSIFICATION_TYPE = U
NORAD_CAT_ID   = 67443
ELEMENT_SET_NO = 999
REV_AT_EPOCH   = 49
BSTAR          = .28934181E-4
MEAN_MOTION_DOT = -.11E-5
MEAN_MOTION_DDOT = 0

CCSDS_OMM_VERS = 2.0
CREATION_DATE  = 
ORIGINATOR     = 

OBJECT_NAME    = CZ-8A R/B
OBJECT_ID      = 2026-007K
CENTER_NAME    = EARTH
REF_FRAME      = TEME
TIME_SYSTEM    = UTC
MEAN_ELEMENT_THEORY = SGP/SGP4

EPOCH          = 2026-01-17T03:39:29.348064
MEAN_MOTION    = 14.13545021
ECCENTRICITY   = .0092137
INCLINATION    = 50.0118
RA_OF_ASC_NODE = 279.9769
ARG_OF_PERICENTER = 95.1432
MEAN_ANOMALY   = 266.0000

EPHEMERIS_TYPE = 0
CLASSIFICATION_TYPE = U
NORAD_CAT_ID   = 67444
ELEMENT_SET_NO = 999
REV_AT_EPOCH   = 49
BSTAR          = -.3923576E-4
MEAN_MOTION_DOT = -.234E-5
MEAN_MOTION_DDOT = 0

CCSDS_OMM_VERS = 2.0
CREATION_DATE  = 
ORIGINATOR     = 

OBJECT_NAME    = ALSAT-3A
OBJECT_ID      = 2026-009A
CENTER_NAME    = EARTH
REF_FRAME      = TEME
TIME_SYSTEM    = UTC
MEAN_ELEMENT_THEORY = SGP/SGP4

EPOCH          = 2026-01-17T15:24:13.569408
MEAN_MOTION    = 15.23391154
ECCENTRICITY   = .00113994
INCLINATION    = 97.4727
RA_OF_ASC_NODE = 92.4072
ARG_OF_PERICENTER = 259.5647
MEAN_ANOMALY   = 100.4306

EPHEMERIS_TYPE = 0
CLASSIFICATION_TYPE = U
NORAD_CAT_ID   = 67474
ELEMENT_SET_NO = 999
REV_AT_EPOCH   = 38
BSTAR          = .29043354E-3
MEAN_MOTION_DOT = .6849E-4
MEAN_MOTION_DDOT = 0

CCSDS_OMM_VERS = 2.0
CREATION_DATE  = 
ORIGINATOR     = 

OBJECT_NAME    = CZ-2C R/B
OBJECT_ID      = 2026-009B
CENTER_NAME    = EARTH
REF_FRAME      = TEME
TIME_SYSTEM    = UTC
MEAN_ELEMENT_THEORY = SGP/SGP4

EPOCH          = 2026-01-17T14:36:28.053792
MEAN_MOTION    = 15.02881814
ECCENTRICITY   = .00989657
INCLINATION    = 97.1817
RA_OF_ASC_NODE = 91.8929
ARG_OF_PERICENTER = 214.4635
MEAN_ANOMALY   = 145.0149

EPHEMERIS_TYPE = 0
CLASSIFICATION_TYPE = U
NORAD_CAT_ID   = 67475
ELEMENT_SET_NO = 999
REV_AT_EPOCH   = 37
BSTAR          = .28824928E-3
MEAN_MOTION_DOT = .424E-4
MEAN_MOTION_DDOT = 0

CCSDS_OMM_VERS = 2.0
CREATION_DATE  = 
ORIGINATOR     = 

OBJECT_NAME    = 2026-012A
OBJECT_ID      = 2026-012A
CENTER_NAME    = EARTH
REF_FRAME      = TEME
TIME_SYSTEM    = UTC
MEAN_ELEMENT_THEORY = SGP/SGP4

EPOCH          = 2026-01-17T14:46:47.244576
MEAN_MOTION    = 14.98282882
ECCENTRICITY   = .00089173
INCLINATION    = 97.5470
RA_OF_ASC_NODE = 93.5003
ARG_OF_PERICENTER = 314.8090
MEAN_ANOMALY   = 45.2407

EPHEMERIS_TYPE = 0
CLASSIFICATION_TYPE = U
NORAD_CAT_ID   = 67483
ELEMENT_SET_NO = 999
REV_AT_EPOCH   = 7
BSTAR          = .10211543E-3
MEAN_MOTION_DOT = .1158E-4
MEAN_MOTION_DDOT = 0

